GLOBALSTAR M063 [+]     
1 26081U 00008A   24090.56190036 -.00000053  00000+0  43141-3 0  9994
2 26081  51.9941 199.9034 0005088 177.5973 195.7950 11.86152404104938
GLOBALSTAR M062 [-]     
1 26082U 00008B   24090.96094988 -.00000053  00000+0  32603-3 0  9999
2 26082  51.9859 319.1428 0006297 244.3181 131.7849 12.43431682441480
GLOBALSTAR M060 [-]     
1 26083U 00008C   24091.06173706 -.00000154  00000+0 -62744-3 0  9990
2 26083  52.0012 216.1618 0002677 303.4649 228.5051 12.17627689 98567
GLOBALSTAR M064 [-]     
1 26084U 00008D   24090.85177808 -.00000053  00000+0  42348-3 0  9999
2 26084  52.0034 303.1988 0000675 305.4949  54.5821 11.88517097114389
GLOBALSTAR M065 [+]     
1 31571U 07020A   24091.16557907 -.00000078  00000+0  14499-3 0  9997
2 31571  51.9876 134.6346 0010474  48.8880 346.6172 12.61965206777776
GLOBALSTAR M069 [+]     
1 31573U 07020C   24090.73551164 -.00000093  00000+0  57670-4 0  9996
2 31573  51.9937  91.8692 0000234 234.6979 306.4376 12.62268421778543
GLOBALSTAR M072 [+]     
1 31574U 07020D   24091.04568932 -.00000089  00000+0  81967-4 0  9994
2 31574  52.0075 186.7927 0000806 137.3528  34.3632 12.62269292777018
GLOBALSTAR M071 [P]     
1 31576U 07020F   24090.76206500 -.00000103  00000+0  38257-5 0  9996
2 31576  52.0052  96.8918 0000826 233.4585 308.7665 12.62270290439737
